STARLINK-3078
1 29134C 21082E   21325.19244052 -.00666306  00000-0 -10783-1 0  3256
2 29134  70.0000 295.9742 0003450 275.3890 155.3171 15.53315161    19
